{
    "links": {
        "self": "http://www.neowsapp.com/rest/v1/neo/3873163?api_key=iIulBulltgU6a56xZRHN4H3l9WmuAYTsLGpBGhQ2"
    },
    "id": "3873163",
    "neo_reference_id": "3873163",
    "name": "(2019 SX9)",
    "designation": "2019 SX9",
    "nasa_jpl_url": "http://ssd.jpl.nasa.gov/sbdb.cgi?sstr=3873163",
    "absolute_magnitude_h": 25.1,
    "estimated_diameter": {
        "kilometers": {
            "estimated_diameter_min": 0.0253837029,
            "estimated_diameter_max": 0.0567596853
        },
        "meters": {
            "estimated_diameter_min": 25.3837029364,
            "estimated_diameter_max": 56.7596852866
        },
        "miles": {
            "estimated_diameter_min": 0.0157726969,
            "estimated_diameter_max": 0.0352688224
        },
        "feet": {
            "estimated_diameter_min": 83.279867942,
            "estimated_diameter_max": 186.2194458756
        }
    },
    "is_potentially_hazardous_asteroid": false,
    "close_approach_data": [
        {
            "close_approach_date": "2019-04-15",
            "close_approach_date_full": "2019-Apr-15 23:10",
            "epoch_date_close_approach": 1555369800000,
            "relative_velocity": {
                "kilometers_per_second": "14.6012371196",
                "kilometers_per_hour": "52564.4536307083",
                "miles_per_hour": "32661.5073129254"
            },
            "miss_distance": {
                "astronomical": "0.4428000124",
                "lunar": "172.2492048236",
                "kilometers": "66241938.691013588",
                "miles": "41160832.0494519944"
            },
            "orbiting_body": "Earth"
        },
        {
            "close_approach_date": "2019-09-30",
            "close_approach_date_full": "2019-Sep-30 11:39",
            "epoch_date_close_approach": 1569843540000,
            "relative_velocity": {
                "kilometers_per_second": "10.394610722",
                "kilometers_per_hour": "37420.5985992662",
                "miles_per_hour": "23251.704724083"
            },
            "miss_distance": {
                "astronomical": "0.1509310052",
                "lunar": "58.7121610228",
                "kilometers": "22578956.894878924",
                "miles": "14029913.2387561912"
            },
            "orbiting_body": "Earth"
        },
        {
            "close_approach_date": "2145-04-07",
            "close_approach_date_full": "2145-Apr-07 08:45",
            "epoch_date_close_approach": 5530841100000,
            "relative_velocity": {
                "kilometers_per_second": "11.140428723",
                "kilometers_per_hour": "40105.5434029602",
                "miles_per_hour": "24920.0250105782"
            },
            "miss_distance": {
                "astronomical": "0.1931622468",
                "lunar": "75.1401140052",
                "kilometers": "28896660.685694316",
                "miles": "17955552.3400649208"
            },
            "orbiting_body": "Earth"
        },
        {
            "close_approach_date": "2145-09-17",
            "close_approach_date_full": "2145-Sep-17 06:12",
            "epoch_date_close_approach": 5544915120000,
            "relative_velocity": {
                "kilometers_per_second": "11.9791954983",
                "kilometers_per_hour": "43125.1037939419",
                "miles_per_hour": "26796.2624101857"
            },
            "miss_distance": {
                "astronomical": "0.3159535642",
                "lunar": "122.9059364738",
                "kilometers": "47265980.223228254",
                "miles": "29369718.2187837452"
            },
            "orbiting_body": "Earth"
        }
    ],
    "orbital_data": {
        "orbit_id": "1",
        "orbit_determination_date": "2019-10-01 23:42:05",
        "first_observation_date": "2019-09-30",
        "last_observation_date": "2019-10-02",
        "data_arc_in_days": 2,
        "observations_used": 17,
        "orbit_uncertainty": "8",
        "minimum_orbit_intersection": ".108843",
        "jupiter_tisserand_invariant": "5.481",
        "epoch_osculation": "2458757.5",
        "eccentricity": ".01900167556929673",
        "semi_major_axis": "1.129407181938251",
        "inclination": "20.29636594395594",
        "ascending_node_longitude": "189.8902714648748",
        "orbital_period": "438.4037340320021",
        "perihelion_distance": "1.107946553081426",
        "perihelion_argument": "22.2249891743403",
        "aphelion_distance": "1.150867810795075",
        "perihelion_time": "2458571.454254863057",
        "mean_anomaly": "152.7734894803848",
        "mean_motion": ".8211608890487258",
        "equinox": "J2000",
        "orbit_class": {
            "orbit_class_type": "AMO",
            "orbit_class_description": "Near-Earth asteroid orbits similar to that of 1221 Amor",
            "orbit_class_range": "1.017 AU < q (perihelion) < 1.3 AU"
        }
    },
    "is_sentry_object": false
}